OBJECT_NAME,OBJECT_ID,EPOCH,MEAN_MOTION,ECCENTRICITY,INCLINATION,RA_OF_ASC_NODE,ARG_OF_PERICENTER,MEAN_ANOMALY,EPHEMERIS_TYPE,CLASSIFICATION_TYPE,NORAD_CAT_ID,ELEMENT_SET_NO,REV_AT_EPOCH,BSTAR,MEAN_MOTION_DOT,MEAN_MOTION_DDOT
STARLINK-4691,2022-104A,2024-01-20T14:08:38.470560,15.08871914,.0001708,53.2177,141.8913,68.4781,291.6393,0,U,53588,999,7847,-.4336E-3,-.7188E-4,0
STARLINK-4673,2022-104B,2024-01-20T16:52:53.272704,15.08823114,.0001187,53.2168,141.1735,74.8034,285.3090,0,U,53589,999,7732,-.25446E-3,-.4333E-4,0
STARLINK-4689,2022-104C,2024-01-20T17:14:06.903744,15.08838265,.0001576,53.2175,141.2656,83.8667,276.2505,0,U,53590,999,7732,.50795E-4,.52E-5,0
STARLINK-4674,2022-104D,2024-01-20T17:08:47.688576,15.08849645,.0001667,53.2190,141.2374,80.8355,279.2825,0,U,53591,999,7732,-.60036E-4,-.1244E-4,0
STARLINK-4672,2022-104E,2024-01-20T15:29:29.721696,15.08834622,.0001735,53.2176,141.5275,79.1301,280.9886,0,U,53592,999,7731,.55689E-4,.598E-5,0
STARLINK-4671,2022-104F,2024-01-20T13:47:25.414944,15.08835943,.0001388,53.2172,141.7948,83.0014,277.1136,0,U,53593,999,7832,-.47727E-4,-.1047E-4,0
STARLINK-4681,2022-104G,2024-01-20T13:31:30.286272,15.08835721,.0001414,53.2167,141.7284,83.8930,276.2224,0,U,53594,999,7846,-.13494E-4,-.503E-5,0
STARLINK-4684,2022-104H,2024-01-20T13:36:49.040064,15.08831564,.0001499,53.2178,141.7476,95.7402,264.3761,0,U,53595,999,7832,.30951E-5,-.239E-5,0
STARLINK-4668,2022-104J,2024-01-20T17:58:52.874976,15.09512930,.0001736,53.2152,140.7559,57.5274,302.5886,0,U,53596,999,7733,.13796E-2,.22146E-3,0
STARLINK-4682,2022-104K,2024-01-20T13:26:11.770944,15.08839448,.000135,53.2157,141.7042,91.1781,268.9365,0,U,53597,999,7799,.28358E-4,.163E-5,0
STARLINK-4676,2022-104L,2024-01-20T17:45:48.566016,15.08852142,.0001567,53.2187,140.6953,119.5805,240.5343,0,U,53598,999,7733,.18338E-6,-.285E-5,0
STARLINK-4677,2022-104N,2024-01-20T14:31:15.248640,15.08838125,.0001447,53.2187,141.9675,78.3112,281.8043,0,U,53600,999,7799,-.92553E-4,-.1761E-4,0
STARLINK-4675,2022-104P,2024-01-20T14:50:57.877152,15.08849145,.0001515,53.2179,141.3625,110.6278,249.4877,0,U,53601,999,7800,-.76348E-4,-.1503E-4,0
STARLINK-4648,2022-104Q,2024-01-20T18:10:21.670464,15.08842142,.0001404,53.2166,135.8243,98.7226,261.3925,0,U,53602,999,7740,.39376E-5,-.225E-5,0
STARLINK-4692,2022-104R,2024-01-20T13:56:02.754816,15.08839355,.0001689,53.2180,136.8521,93.7562,266.3624,0,U,53603,999,7806,.70165E-5,-.176E-5,0
STARLINK-4690,2022-104S,2024-01-20T13:13:35.905728,15.08836206,.0001466,53.2163,136.6682,86.9525,273.1635,0,U,53604,999,7806,.18703E-4,.1E-6,0
STARLINK-4693,2022-104T,2024-01-20T14:40:22.549440,15.08826216,.000147,53.2182,141.3199,88.8425,271.2736,0,U,53605,999,7800,-.10218E-3,-.1913E-4,0
STARLINK-4590,2022-104U,2024-01-20T16:59:28.519872,15.08869767,.0001518,53.2167,131.2198,97.9796,262.1368,0,U,53606,999,7746,.20978E-3,.3055E-4,0
STARLINK-4591,2022-104V,2024-01-20T16:50:53.695104,15.08844979,.0001311,53.2168,136.1834,92.2465,267.8677,0,U,53607,999,7739,.56658E-4,.614E-5,0
STARLINK-4647,2022-104W,2024-01-20T13:59:21.521472,15.08839430,.0001627,53.2188,131.8636,84.8353,275.2825,0,U,53608,999,7801,-.15435E-4,-.534E-5,0
STARLINK-4660,2022-104X,2024-01-20T14:27:45.479808,15.08836230,.0001624,53.2171,136.2825,105.7967,254.3204,0,U,53609,999,7807,-.19217E-4,-.594E-5,0
STARLINK-4610,2022-104Y,2024-01-20T13:50:05.844192,15.08865056,.0001599,53.2177,131.8175,81.8503,278.2670,0,U,53610,999,7744,.12998E-3,.1783E-4,0
STARLINK-4650,2022-104Z,2024-01-20T16:24:39.315168,15.12188610,.0003917,53.2174,130.3861,189.7013,170.3906,0,U,53611,999,7747,.42201E-3,.7077E-4,0
STARLINK-4658,2022-104AA,2024-01-20T13:43:26.511168,15.08842555,.0001746,53.2188,131.7905,66.8935,293.2242,0,U,53612,999,7801,-.18396E-4,-.581E-5,0
STARLINK-4655,2022-104AB,2024-01-20T12:18:40.169088,15.08838759,.0001578,53.2167,132.1368,69.3986,290.7175,0,U,53613,999,7800,-.41577E-4,-.95E-5,0
STARLINK-4605,2022-104AE,2024-01-20T13:39:25.173504,15.08844646,.0001134,53.2160,121.5984,102.2093,257.9026,0,U,53616,999,7826,-.2717E-3,-.461E-4,0
STARLINK-4601,2022-104AF,2024-01-20T13:38:07.910304,15.08845312,.0001427,53.2150,131.7678,80.3343,279.7810,0,U,53617,999,7801,.10881E-3,.1444E-4,0
STARLINK-4604,2022-104AG,2024-01-20T14:57:35.829504,15.08844711,.000144,53.2163,131.4005,83.9977,276.1179,0,U,53618,999,7744,.74421E-4,.897E-5,0
