STARLINK-4691           
1 53588U 22104A   24020.58933415 -.00007188  00000+0 -43360-3 0  9998
2 53588  53.2177 141.8913 0001708  68.4781 291.6393 15.08871914 78476
STARLINK-4673           
1 53589U 22104B   24020.70339436 -.00004333  00000+0 -25446-3 0  9990
2 53589  53.2168 141.1735 0001187  74.8034 285.3090 15.08823114 77321
STARLINK-4689           
1 53590U 22104C   24020.71813546  .00000520  00000+0  50795-4 0  9990
2 53590  53.2175 141.2656 0001576  83.8667 276.2505 15.08838265 77321
STARLINK-4674           
1 53591U 22104D   24020.71444084 -.00001244  00000+0 -60036-4 0  9993
2 53591  53.2190 141.2374 0001667  80.8355 279.2825 15.08849645 77320
STARLINK-4672           
1 53592U 22104E   24020.64548289  .00000598  00000+0  55689-4 0  9995
2 53592  53.2176 141.5275 0001735  79.1301 280.9886 15.08834622 77310
STARLINK-4671           
1 53593U 22104F   24020.57459971 -.00001047  00000+0 -47727-4 0  9993
2 53593  53.2172 141.7948 0001388  83.0014 277.1136 15.08835943 78320
STARLINK-4681           
1 53594U 22104G   24020.56354498 -.00000503  00000+0 -13494-4 0  9991
2 53594  53.2167 141.7284 0001414  83.8930 276.2224 15.08835721 78460
STARLINK-4684           
1 53595U 22104H   24020.56723426 -.00000239  00000+0  30951-5 0  9996
2 53595  53.2178 141.7476 0001499  95.7402 264.3761 15.08831564 78325
STARLINK-4668           
1 53596U 22104J   24020.74922309  .00022146  00000+0  13796-2 0  9993
2 53596  53.2152 140.7559 0001736  57.5274 302.5886 15.09512930 77333
STARLINK-4682           
1 53597U 22104K   24020.55985846  .00000163  00000+0  28358-4 0  9995
2 53597  53.2157 141.7042 0001350  91.1781 268.9365 15.08839448 77990
STARLINK-4676           
1 53598U 22104L   24020.74014544 -.00000285  00000+0  18338-6 0  9990
2 53598  53.2187 140.6953 0001567 119.5805 240.5343 15.08852142 77331
STARLINK-4677           
1 53600U 22104N   24020.60503760 -.00001761  00000+0 -92553-4 0  9992
2 53600  53.2187 141.9675 0001447  78.3112 281.8043 15.08838125 77992
STARLINK-4675           
1 53601U 22104P   24020.61872543 -.00001503  00000+0 -76348-4 0  9990
2 53601  53.2179 141.3625 0001515 110.6278 249.4877 15.08849145 78004
STARLINK-4648           
1 53602U 22104Q   24020.75719526 -.00000225  00000+0  39376-5 0  9997
2 53602  53.2166 135.8243 0001404  98.7226 261.3925 15.08842142 77401
STARLINK-4692           
1 53603U 22104R   24020.58058744 -.00000176  00000+0  70165-5 0  9993
2 53603  53.2180 136.8521 0001689  93.7562 266.3624 15.08839355 78067
STARLINK-4690           
1 53604U 22104S   24020.55111002  .00000010  00000+0  18703-4 0  9993
2 53604  53.2163 136.6682 0001466  86.9525 273.1635 15.08836206 78061
STARLINK-4693           
1 53605U 22104T   24020.61137210 -.00001913  00000+0 -10218-3 0  9997
2 53605  53.2182 141.3199 0001470  88.8425 271.2736 15.08826216 78009
STARLINK-4590           
1 53606U 22104U   24020.70796898  .00003055  00000+0  20978-3 0  9992
2 53606  53.2167 131.2198 0001518  97.9796 262.1368 15.08869767 77462
STARLINK-4591           
1 53607U 22104V   24020.70201036  .00000614  00000+0  56658-4 0  9991
2 53607  53.2168 136.1834 0001311  92.2465 267.8677 15.08844979 77392
STARLINK-4647           
1 53608U 22104W   24020.58288798 -.00000534  00000+0 -15435-4 0  9999
2 53608  53.2188 131.8636 0001627  84.8353 275.2825 15.08839430 78014
STARLINK-4660           
1 53609U 22104X   24020.60260972 -.00000594  00000+0 -19217-4 0  9995
2 53609  53.2171 136.2825 0001624 105.7967 254.3204 15.08836230 78077
STARLINK-4610           
1 53610U 22104Y   24020.57645653  .00001783  00000+0  12998-3 0  9993
2 53610  53.2177 131.8175 0001599  81.8503 278.2670 15.08865056 77445
STARLINK-4650           
1 53611U 22104Z   24020.68378837  .00007077  00000+0  42201-3 0  9995
2 53611  53.2174 130.3861 0003917 189.7013 170.3906 15.12188610 77475
STARLINK-4658           
1 53612U 22104AA  24020.57183462 -.00000581  00000+0 -18396-4 0  9996
2 53612  53.2188 131.7905 0001746  66.8935 293.2242 15.08842555 78010
STARLINK-4655           
1 53613U 22104AB  24020.51296492 -.00000950  00000+0 -41577-4 0  9996
2 53613  53.2167 132.1368 0001578  69.3986 290.7175 15.08838759 78000
STARLINK-4605           
1 53616U 22104AE  24020.56904136 -.00004610  00000+0 -27170-3 0  9994
2 53616  53.2160 121.5984 0001134 102.2093 257.9026 15.08844646 78266
STARLINK-4601           
1 53617U 22104AF  24020.56814711  .00001444  00000+0  10881-3 0  9995
2 53617  53.2150 131.7678 0001427  80.3343 279.7810 15.08845312 78015
STARLINK-4604           
1 53618U 22104AG  24020.62333136  .00000897  00000+0  74421-4 0  9992
2 53618  53.2163 131.4005 0001440  83.9977 276.1179 15.08844711 77445
